QIANFAN-52              
1 62253U 24232S   26064.97697648  .00000079  00000+0  10348-3 0  9999
2 62253  89.0055  32.7051 0014075 318.6675  41.3410 13.51000867 79187
QIANFAN-53              
1 62254U 24232T   26064.95637198  .00000074  00000+0  96918-4 0  9995
2 62254  89.0062  32.8179 0013003 320.5541  39.4662 13.51003579 79148
QIANFAN-54              
1 62255U 24232U   26064.92348940  .00000082  00000+0  10811-3 0  9993
2 62255  89.0053  32.4924 0003092  38.9228 321.2145 13.51002984110640
QIANFAN-55              
1 62785U 25016A   26064.94954316  .00000056  00000+0  68403-4 0  9996
2 62785  88.9692  94.6008 0019438 106.8933 253.4352 13.50996332 58428
QIANFAN-56              
1 62786U 25016B   26064.89185104  .00000050  00000+0  58762-4 0  9993
2 62786  88.9665  94.4208 0018071 109.0693 251.2418 13.50998191 58467
QIANFAN-57              
1 62787U 25016C   26064.92482772  .00000048  00000+0  55041-4 0  9993
2 62787  88.9696  94.5967 0001371  99.5692 260.5614 13.50997102 58431
QIANFAN-58              
1 62788U 25016D   26064.89596207  .00000052  00000+0  62047-4 0  9998
2 62788  88.9666  94.4056 0016024 102.2170 258.0777 13.50998723 58477
QIANFAN-59              
1 62789U 25016E   26064.92080316  .00000047  00000+0  53398-4 0  9995
2 62789  88.9689  94.4965 0016370 105.4619 254.8341 13.50994592 58470
QIANFAN-60              
1 62790U 25016F   26064.95373268  .00000053  00000+0  63133-4 0  9996
2 62790  88.9670  94.4486 0017939 102.4225 257.8935 13.50992572 58469
QIANFAN-61              
1 62791U 25016G   26064.61459919 -.01743446  00000+0 -30832+1 0  9997
2 62791  88.9734  94.7032 0014066  94.6220 265.6536 13.46648286 58432
QIANFAN-62              
1 62792U 25016H   26064.99069615  .00000038  00000+0  39143-4 0  9997
2 62792  88.9684  94.4878 0018240 102.0529 258.2668 13.50996573 58474
QIANFAN-63              
1 62793U 25016J   26064.94135490  .00000049  00000+0  56506-4 0  9992
2 62793  88.9691  94.4501 0018283 106.9533 253.3624 13.50995241 58504
QIANFAN-64              
1 62794U 25016K   26064.98252190  .00000009  00000+0 -44233-5 0  9996
2 62794  88.9678  94.4087 0016239 100.4836 259.8146 13.51005490 58502
QIANFAN-65              
1 62795U 25016L   26064.97831301  .00000024  00000+0  18686-4 0  9991
2 62795  88.9674  94.4322 0016091 102.0170 258.2785 13.51008739 58484
QIANFAN-66              
1 62796U 25016M   26064.93305926  .00000037  00000+0  37680-4 0  9996
2 62796  88.9694  94.4233 0017202  98.3922 261.9180 13.50996907 58522
QIANFAN-67              
1 62797U 25016N   26064.93711998  .00000044  00000+0  49753-4 0  9999
2 62797  88.9684  94.4403 0017150 104.3983 255.9073 13.50995312 58497
QIANFAN-68              
1 62798U 25016P   26064.92902886  .00000044  00000+0  48781-4 0  9997
2 62798  88.9687  94.4894 0017220 102.9057 257.4019 13.51005254 58472
