[{"OBJECT_NAME":"QIANFAN-52","OBJECT_ID":"2024-232S","EPOCH":"2026-03-05T23:26:50.767872","MEAN_MOTION":13.51000867,"ECCENTRICITY":0.00140758,"INCLINATION":89.0055,"RA_OF_ASC_NODE":32.7051,"ARG_OF_PERICENTER":318.6675,"MEAN_ANOMALY":41.341,"EPHEMERIS_TYPE":0,"CLASSIFICATION_TYPE":"U","NORAD_CAT_ID":62253,"ELEMENT_SET_NO":999,"REV_AT_EPOCH":7918,"BSTAR":0.00010348158,"MEAN_MOTION_DOT":7.9e-7,"MEAN_MOTION_DDOT":0},{"OBJECT_NAME":"QIANFAN-53","OBJECT_ID":"2024-232T","EPOCH":"2026-03-05T22:57:10.539072","MEAN_MOTION":13.51003579,"ECCENTRICITY":0.00130036,"INCLINATION":89.0062,"RA_OF_ASC_NODE":32.8179,"ARG_OF_PERICENTER":320.5541,"MEAN_ANOMALY":39.4662,"EPHEMERIS_TYPE":0,"CLASSIFICATION_TYPE":"U","NORAD_CAT_ID":62254,"ELEMENT_SET_NO":999,"REV_AT_EPOCH":7914,"BSTAR":9.691773e-5,"MEAN_MOTION_DOT":7.4e-7,"MEAN_MOTION_DDOT":0},{"OBJECT_NAME":"QIANFAN-54","OBJECT_ID":"2024-232U","EPOCH":"2026-03-05T22:09:49.484160","MEAN_MOTION":13.51002984,"ECCENTRICITY":0.00030927,"INCLINATION":89.0053,"RA_OF_ASC_NODE":32.4924,"ARG_OF_PERICENTER":38.9228,"MEAN_ANOMALY":321.2145,"EPHEMERIS_TYPE":0,"CLASSIFICATION_TYPE":"U","NORAD_CAT_ID":62255,"ELEMENT_SET_NO":999,"REV_AT_EPOCH":11064,"BSTAR":0.00010810935,"MEAN_MOTION_DOT":8.2e-7,"MEAN_MOTION_DDOT":0},{"OBJECT_NAME":"QIANFAN-55","OBJECT_ID":"2025-016A","EPOCH":"2026-03-05T22:47:20.529024","MEAN_MOTION":13.50996332,"ECCENTRICITY":0.00194387,"INCLINATION":88.9692,"RA_OF_ASC_NODE":94.6008,"ARG_OF_PERICENTER":106.8933,"MEAN_ANOMALY":253.4352,"EPHEMERIS_TYPE":0,"CLASSIFICATION_TYPE":"U","NORAD_CAT_ID":62785,"ELEMENT_SET_NO":999,"REV_AT_EPOCH":5842,"BSTAR":6.8403386e-5,"MEAN_MOTION_DOT":5.6e-7,"MEAN_MOTION_DDOT":0},{"OBJECT_NAME":"QIANFAN-56","OBJECT_ID":"2025-016B","EPOCH":"2026-03-05T21:24:15.929856","MEAN_MOTION":13.50998191,"ECCENTRICITY":0.00180711,"INCLINATION":88.9665,"RA_OF_ASC_NODE":94.4208,"ARG_OF_PERICENTER":109.0693,"MEAN_ANOMALY":251.2418,"EPHEMERIS_TYPE":0,"CLASSIFICATION_TYPE":"U","NORAD_CAT_ID":62786,"ELEMENT_SET_NO":999,"REV_AT_EPOCH":5846,"BSTAR":5.8761953e-5,"MEAN_MOTION_DOT":5.0e-7,"MEAN_MOTION_DDOT":0},{"OBJECT_NAME":"QIANFAN-57","OBJECT_ID":"2025-016C","EPOCH":"2026-03-05T22:11:45.115008","MEAN_MOTION":13.50997102,"ECCENTRICITY":0.00013716,"INCLINATION":88.9696,"RA_OF_ASC_NODE":94.5967,"ARG_OF_PERICENTER":99.5692,"MEAN_ANOMALY":260.5614,"EPHEMERIS_TYPE":0,"CLASSIFICATION_TYPE":"U","NORAD_CAT_ID":62787,"ELEMENT_SET_NO":999,"REV_AT_EPOCH":5843,"BSTAR":5.5041387e-5,"MEAN_MOTION_DOT":4.8e-7,"MEAN_MOTION_DDOT":0},{"OBJECT_NAME":"QIANFAN-58","OBJECT_ID":"2025-016D","EPOCH":"2026-03-05T21:30:11.122848","MEAN_MOTION":13.50998723,"ECCENTRICITY":0.00160241,"INCLINATION":88.9666,"RA_OF_ASC_NODE":94.4056,"ARG_OF_PERICENTER":102.217,"MEAN_ANOMALY":258.0777,"EPHEMERIS_TYPE":0,"CLASSIFICATION_TYPE":"U","NORAD_CAT_ID":62788,"ELEMENT_SET_NO":999,"REV_AT_EPOCH":5847,"BSTAR":6.2047104e-5,"MEAN_MOTION_DOT":5.2e-7,"MEAN_MOTION_DDOT":0},{"OBJECT_NAME":"QIANFAN-59","OBJECT_ID":"2025-016E","EPOCH":"2026-03-05T22:05:57.393024","MEAN_MOTION":13.50994592,"ECCENTRICITY":0.00163701,"INCLINATION":88.9689,"RA_OF_ASC_NODE":94.4965,"ARG_OF_PERICENTER":105.4619,"MEAN_ANOMALY":254.8341,"EPHEMERIS_TYPE":0,"CLASSIFICATION_TYPE":"U","NORAD_CAT_ID":62789,"ELEMENT_SET_NO":999,"REV_AT_EPOCH":5847,"BSTAR":5.3398171e-5,"MEAN_MOTION_DOT":4.7e-7,"MEAN_MOTION_DDOT":0},{"OBJECT_NAME":"QIANFAN-60","OBJECT_ID":"2025-016F","EPOCH":"2026-03-05T22:53:22.503552","MEAN_MOTION":13.50992572,"ECCENTRICITY":0.00179397,"INCLINATION":88.967,"RA_OF_ASC_NODE":94.4486,"ARG_OF_PERICENTER":102.4225,"MEAN_ANOMALY":257.8935,"EPHEMERIS_TYPE":0,"CLASSIFICATION_TYPE":"U","NORAD_CAT_ID":62790,"ELEMENT_SET_NO":999,"REV_AT_EPOCH":5846,"BSTAR":6.313344e-5,"MEAN_MOTION_DOT":5.3e-7,"MEAN_MOTION_DDOT":0},{"OBJECT_NAME":"QIANFAN-61","OBJECT_ID":"2025-016G","EPOCH":"2026-03-05T14:45:01.370016","MEAN_MOTION":13.46648286,"ECCENTRICITY":0.0014066,"INCLINATION":88.9734,"RA_OF_ASC_NODE":94.7032,"ARG_OF_PERICENTER":94.622,"MEAN_ANOMALY":265.6536,"EPHEMERIS_TYPE":0,"CLASSIFICATION_TYPE":"U","NORAD_CAT_ID":62791,"ELEMENT_SET_NO":999,"REV_AT_EPOCH":5843,"BSTAR":-3.0832,"MEAN_MOTION_DOT":-0.01743446,"MEAN_MOTION_DDOT":0},{"OBJECT_NAME":"QIANFAN-62","OBJECT_ID":"2025-016H","EPOCH":"2026-03-05T23:46:36.147360","MEAN_MOTION":13.50996573,"ECCENTRICITY":0.00182402,"INCLINATION":88.9684,"RA_OF_ASC_NODE":94.4878,"ARG_OF_PERICENTER":102.0529,"MEAN_ANOMALY":258.2668,"EPHEMERIS_TYPE":0,"CLASSIFICATION_TYPE":"U","NORAD_CAT_ID":62792,"ELEMENT_SET_NO":999,"REV_AT_EPOCH":5847,"BSTAR":3.914266e-5,"MEAN_MOTION_DOT":3.8e-7,"MEAN_MOTION_DDOT":0},{"OBJECT_NAME":"QIANFAN-63","OBJECT_ID":"2025-016J","EPOCH":"2026-03-05T22:35:33.063360","MEAN_MOTION":13.50995241,"ECCENTRICITY":0.00182836,"INCLINATION":88.9691,"RA_OF_ASC_NODE":94.4501,"ARG_OF_PERICENTER":106.9533,"MEAN_ANOMALY":253.3624,"EPHEMERIS_TYPE":0,"CLASSIFICATION_TYPE":"U","NORAD_CAT_ID":62793,"ELEMENT_SET_NO":999,"REV_AT_EPOCH":5850,"BSTAR":5.6506472e-5,"MEAN_MOTION_DOT":4.9e-7,"MEAN_MOTION_DDOT":0},{"OBJECT_NAME":"QIANFAN-64","OBJECT_ID":"2025-016K","EPOCH":"2026-03-05T23:34:49.892160","MEAN_MOTION":13.5100549,"ECCENTRICITY":0.00162395,"INCLINATION":88.9678,"RA_OF_ASC_NODE":94.4087,"ARG_OF_PERICENTER":100.4836,"MEAN_ANOMALY":259.8146,"EPHEMERIS_TYPE":0,"CLASSIFICATION_TYPE":"U","NORAD_CAT_ID":62794,"ELEMENT_SET_NO":999,"REV_AT_EPOCH":5850,"BSTAR":-4.42329e-6,"MEAN_MOTION_DOT":9.0e-8,"MEAN_MOTION_DDOT":0},{"OBJECT_NAME":"QIANFAN-65","OBJECT_ID":"2025-016L","EPOCH":"2026-03-05T23:28:46.244064","MEAN_MOTION":13.51008739,"ECCENTRICITY":0.00160911,"INCLINATION":88.9674,"RA_OF_ASC_NODE":94.4322,"ARG_OF_PERICENTER":102.017,"MEAN_ANOMALY":258.2785,"EPHEMERIS_TYPE":0,"CLASSIFICATION_TYPE":"U","NORAD_CAT_ID":62795,"ELEMENT_SET_NO":999,"REV_AT_EPOCH":5848,"BSTAR":1.8685659e-5,"MEAN_MOTION_DOT":2.4e-7,"MEAN_MOTION_DDOT":0},{"OBJECT_NAME":"QIANFAN-66","OBJECT_ID":"2025-016M","EPOCH":"2026-03-05T22:23:36.320064","MEAN_MOTION":13.50996907,"ECCENTRICITY":0.00172028,"INCLINATION":88.9694,"RA_OF_ASC_NODE":94.4233,"ARG_OF_PERICENTER":98.3922,"MEAN_ANOMALY":261.918,"EPHEMERIS_TYPE":0,"CLASSIFICATION_TYPE":"U","NORAD_CAT_ID":62796,"ELEMENT_SET_NO":999,"REV_AT_EPOCH":5852,"BSTAR":3.7679785e-5,"MEAN_MOTION_DOT":3.7e-7,"MEAN_MOTION_DDOT":0},{"OBJECT_NAME":"QIANFAN-67","OBJECT_ID":"2025-016N","EPOCH":"2026-03-05T22:29:27.166272","MEAN_MOTION":13.50995312,"ECCENTRICITY":0.00171505,"INCLINATION":88.9684,"RA_OF_ASC_NODE":94.4403,"ARG_OF_PERICENTER":104.3983,"MEAN_ANOMALY":255.9073,"EPHEMERIS_TYPE":0,"CLASSIFICATION_TYPE":"U","NORAD_CAT_ID":62797,"ELEMENT_SET_NO":999,"REV_AT_EPOCH":5849,"BSTAR":4.9753135e-5,"MEAN_MOTION_DOT":4.4e-7,"MEAN_MOTION_DDOT":0},{"OBJECT_NAME":"QIANFAN-68","OBJECT_ID":"2025-016P","EPOCH":"2026-03-05T22:17:48.093504","MEAN_MOTION":13.51005254,"ECCENTRICITY":0.00172202,"INCLINATION":88.9687,"RA_OF_ASC_NODE":94.4894,"ARG_OF_PERICENTER":102.9057,"MEAN_ANOMALY":257.4019,"EPHEMERIS_TYPE":0,"CLASSIFICATION_TYPE":"U","NORAD_CAT_ID":62798,"ELEMENT_SET_NO":999,"REV_AT_EPOCH":5847,"BSTAR":4.8781368e-5,"MEAN_MOTION_DOT":4.4e-7,"MEAN_MOTION_DDOT":0}]
